CCSDS_OMM_VERS = 2.0
CREATION_DATE  = 
ORIGINATOR     = 

OBJECT_NAME    = HULIANWANG DIGUI 12J
OBJECT_ID      = 2025-231J
CENTER_NAME    = EARTH
REF_FRAME      = TEME
TIME_SYSTEM    = UTC
MEAN_ELEMENT_THEORY = SGP/SGP4

EPOCH          = 2025-10-26T23:35:52.929600
MEAN_MOTION    = 14.06123893
ECCENTRICITY   = .00056504
INCLINATION    = 50.0045
RA_OF_ASC_NODE = 313.2095
ARG_OF_PERICENTER = 308.9667
MEAN_ANOMALY   = 51.0735

EPHEMERIS_TYPE = 0
CLASSIFICATION_TYPE = U
NORAD_CAT_ID   = 66003
ELEMENT_SET_NO = 999
REV_AT_EPOCH   = 154
BSTAR          = .17147183E-3
MEAN_MOTION_DOT = .131E-5
MEAN_MOTION_DDOT = 0

CCSDS_OMM_VERS = 2.0
CREATION_DATE  = 
ORIGINATOR     = 

OBJECT_NAME    = CZ-8A R/B
OBJECT_ID      = 2025-231K
CENTER_NAME    = EARTH
REF_FRAME      = TEME
TIME_SYSTEM    = UTC
MEAN_ELEMENT_THEORY = SGP/SGP4

EPOCH          = 2025-10-26T19:14:27.256704
MEAN_MOTION    = 14.30030850
ECCENTRICITY   = .01167007
INCLINATION    = 50.0039
RA_OF_ASC_NODE = 312.1815
ARG_OF_PERICENTER = 121.8784
MEAN_ANOMALY   = 239.3550

EPHEMERIS_TYPE = 0
CLASSIFICATION_TYPE = U
NORAD_CAT_ID   = 66004
ELEMENT_SET_NO = 999
REV_AT_EPOCH   = 154
BSTAR          = .40924943E-4
MEAN_MOTION_DOT = -.51E-6
MEAN_MOTION_DDOT = 0

CCSDS_OMM_VERS = 2.0
CREATION_DATE  = 
ORIGINATOR     = 

OBJECT_NAME    = STARLINK-34849
OBJECT_ID      = 2025-232A
CENTER_NAME    = EARTH
REF_FRAME      = TEME
TIME_SYSTEM    = UTC
MEAN_ELEMENT_THEORY = SGP/SGP4

EPOCH          = 2025-10-26T22:00:03.000096
MEAN_MOTION    = 15.83213767
ECCENTRICITY   = .00008476
INCLINATION    = 53.1554
RA_OF_ASC_NODE = 10.2257
ARG_OF_PERICENTER = 69.3995
MEAN_ANOMALY   = 342.2715

EPHEMERIS_TYPE = 0
CLASSIFICATION_TYPE = U
NORAD_CAT_ID   = 66005
ELEMENT_SET_NO = 999
REV_AT_EPOCH   = 202
BSTAR          = -.76235668E-2
MEAN_MOTION_DOT = -.1484578E-1
MEAN_MOTION_DDOT = 0

CCSDS_OMM_VERS = 2.0
CREATION_DATE  = 
ORIGINATOR     = 

OBJECT_NAME    = STARLINK-35336
OBJECT_ID      = 2025-232B
CENTER_NAME    = EARTH
REF_FRAME      = TEME
TIME_SYSTEM    = UTC
MEAN_ELEMENT_THEORY = SGP/SGP4

EPOCH          = 2025-10-26T22:00:03.000096
MEAN_MOTION    = 15.83181403
ECCENTRICITY   = .00010343
INCLINATION    = 53.1551
RA_OF_ASC_NODE = 10.2197
ARG_OF_PERICENTER = 55.5121
MEAN_ANOMALY   = 358.9187

EPHEMERIS_TYPE = 0
CLASSIFICATION_TYPE = U
NORAD_CAT_ID   = 66006
ELEMENT_SET_NO = 999
REV_AT_EPOCH   = 203
BSTAR          = -.77987151E-2
MEAN_MOTION_DOT = -.1512686E-1
MEAN_MOTION_DDOT = 0

CCSDS_OMM_VERS = 2.0
CREATION_DATE  = 
ORIGINATOR     = 

OBJECT_NAME    = STARLINK-35196
OBJECT_ID      = 2025-232C
CENTER_NAME    = EARTH
REF_FRAME      = TEME
TIME_SYSTEM    = UTC
MEAN_ELEMENT_THEORY = SGP/SGP4

EPOCH          = 2025-10-26T22:00:03.000096
MEAN_MOTION    = 15.83183531
ECCENTRICITY   = .00010071
INCLINATION    = 53.1553
RA_OF_ASC_NODE = 10.2155
ARG_OF_PERICENTER = 62.1475
MEAN_ANOMALY   = 354.4069

EPHEMERIS_TYPE = 0
CLASSIFICATION_TYPE = U
NORAD_CAT_ID   = 66007
ELEMENT_SET_NO = 999
REV_AT_EPOCH   = 203
BSTAR          = -.78403938E-2
MEAN_MOTION_DOT = -.1519917E-1
MEAN_MOTION_DDOT = 0

CCSDS_OMM_VERS = 2.0
CREATION_DATE  = 
ORIGINATOR     = 

OBJECT_NAME    = STARLINK-35236
OBJECT_ID      = 2025-232D
CENTER_NAME    = EARTH
REF_FRAME      = TEME
TIME_SYSTEM    = UTC
MEAN_ELEMENT_THEORY = SGP/SGP4

EPOCH          = 2025-10-26T22:00:03.000096
MEAN_MOTION    = 15.83169703
ECCENTRICITY   = .00009302
INCLINATION    = 53.1547
RA_OF_ASC_NODE = 10.2097
ARG_OF_PERICENTER = 76.5968
MEAN_ANOMALY   = 342.3702

EPHEMERIS_TYPE = 0
CLASSIFICATION_TYPE = U
NORAD_CAT_ID   = 66008
ELEMENT_SET_NO = 999
REV_AT_EPOCH   = 203
BSTAR          = -.79188643E-2
MEAN_MOTION_DOT = -.1532342E-1
MEAN_MOTION_DDOT = 0

CCSDS_OMM_VERS = 2.0
CREATION_DATE  = 
ORIGINATOR     = 

OBJECT_NAME    = STARLINK-35276
OBJECT_ID      = 2025-232E
CENTER_NAME    = EARTH
REF_FRAME      = TEME
TIME_SYSTEM    = UTC
MEAN_ELEMENT_THEORY = SGP/SGP4

EPOCH          = 2025-10-26T22:00:03.000096
MEAN_MOTION    = 15.83141539
ECCENTRICITY   = .0000786
INCLINATION    = 53.1547
RA_OF_ASC_NODE = 10.2046
ARG_OF_PERICENTER = 83.4335
MEAN_ANOMALY   = 338.1300

EPHEMERIS_TYPE = 0
CLASSIFICATION_TYPE = U
NORAD_CAT_ID   = 66009
ELEMENT_SET_NO = 999
REV_AT_EPOCH   = 202
BSTAR          = -.80079912E-2
MEAN_MOTION_DOT = -.1545545E-1
MEAN_MOTION_DDOT = 0

CCSDS_OMM_VERS = 2.0
CREATION_DATE  = 
ORIGINATOR     = 

OBJECT_NAME    = STARLINK-35297
OBJECT_ID      = 2025-232F
CENTER_NAME    = EARTH
REF_FRAME      = TEME
TIME_SYSTEM    = UTC
MEAN_ELEMENT_THEORY = SGP/SGP4

EPOCH          = 2025-10-26T22:00:03.000096
MEAN_MOTION    = 15.83135167
ECCENTRICITY   = .00008014
INCLINATION    = 53.1549
RA_OF_ASC_NODE = 10.2000
ARG_OF_PERICENTER = 74.4023
MEAN_ANOMALY   = 349.3920

EPHEMERIS_TYPE = 0
CLASSIFICATION_TYPE = U
NORAD_CAT_ID   = 66010
ELEMENT_SET_NO = 999
REV_AT_EPOCH   = 203
BSTAR          = -.80348917E-2
MEAN_MOTION_DOT = -.1549696E-1
MEAN_MOTION_DDOT = 0

CCSDS_OMM_VERS = 2.0
CREATION_DATE  = 
ORIGINATOR     = 

OBJECT_NAME    = STARLINK-35256
OBJECT_ID      = 2025-232G
CENTER_NAME    = EARTH
REF_FRAME      = TEME
TIME_SYSTEM    = UTC
MEAN_ELEMENT_THEORY = SGP/SGP4

EPOCH          = 2025-10-26T22:00:03.000096
MEAN_MOTION    = 15.83109241
ECCENTRICITY   = .00010794
INCLINATION    = 53.1550
RA_OF_ASC_NODE = 10.1814
ARG_OF_PERICENTER = 57.5281
MEAN_ANOMALY   = 15.2634

EPHEMERIS_TYPE = 0
CLASSIFICATION_TYPE = U
NORAD_CAT_ID   = 66011
ELEMENT_SET_NO = 999
REV_AT_EPOCH   = 203
BSTAR          = -.82402899E-2
MEAN_MOTION_DOT = -.1582817E-1
MEAN_MOTION_DDOT = 0

CCSDS_OMM_VERS = 2.0
CREATION_DATE  = 
ORIGINATOR     = 

OBJECT_NAME    = STARLINK-35293
OBJECT_ID      = 2025-232H
CENTER_NAME    = EARTH
REF_FRAME      = TEME
TIME_SYSTEM    = UTC
MEAN_ELEMENT_THEORY = SGP/SGP4

EPOCH          = 2025-10-26T22:00:03.000096
MEAN_MOTION    = 15.83123447
ECCENTRICITY   = .00008146
INCLINATION    = 53.1547
RA_OF_ASC_NODE = 10.1951
ARG_OF_PERICENTER = 79.1938
MEAN_ANOMALY   = 346.9646

EPHEMERIS_TYPE = 0
CLASSIFICATION_TYPE = U
NORAD_CAT_ID   = 66012
ELEMENT_SET_NO = 999
REV_AT_EPOCH   = 203
BSTAR          = -.81121982E-2
MEAN_MOTION_DOT = -.1561999E-1
MEAN_MOTION_DDOT = 0

CCSDS_OMM_VERS = 2.0
CREATION_DATE  = 
ORIGINATOR     = 

OBJECT_NAME    = STARLINK-35307
OBJECT_ID      = 2025-232J
CENTER_NAME    = EARTH
REF_FRAME      = TEME
TIME_SYSTEM    = UTC
MEAN_ELEMENT_THEORY = SGP/SGP4

EPOCH          = 2025-10-26T22:00:03.000096
MEAN_MOTION    = 15.83109516
ECCENTRICITY   = .00009346
INCLINATION    = 53.1550
RA_OF_ASC_NODE = 10.1904
ARG_OF_PERICENTER = 71.5408
MEAN_ANOMALY   = 356.9043

EPHEMERIS_TYPE = 0
CLASSIFICATION_TYPE = U
NORAD_CAT_ID   = 66013
ELEMENT_SET_NO = 999
REV_AT_EPOCH   = 196
BSTAR          = -.81340649E-2
MEAN_MOTION_DOT = -.1564862E-1
MEAN_MOTION_DDOT = 0

CCSDS_OMM_VERS = 2.0
CREATION_DATE  = 
ORIGINATOR     = 

OBJECT_NAME    = STARLINK-35395
OBJECT_ID      = 2025-232K
CENTER_NAME    = EARTH
REF_FRAME      = TEME
TIME_SYSTEM    = UTC
MEAN_ELEMENT_THEORY = SGP/SGP4

EPOCH          = 2025-10-26T22:00:03.000096
MEAN_MOTION    = 15.83121874
ECCENTRICITY   = .00008387
INCLINATION    = 53.1548
RA_OF_ASC_NODE = 10.1860
ARG_OF_PERICENTER = 76.0180
MEAN_ANOMALY   = 354.4282

EPHEMERIS_TYPE = 0
CLASSIFICATION_TYPE = U
NORAD_CAT_ID   = 66014
ELEMENT_SET_NO = 999
REV_AT_EPOCH   = 202
BSTAR          = -.81719249E-2
MEAN_MOTION_DOT = -.1571976E-1
MEAN_MOTION_DDOT = 0

CCSDS_OMM_VERS = 2.0
CREATION_DATE  = 
ORIGINATOR     = 

OBJECT_NAME    = STARLINK-34622
OBJECT_ID      = 2025-232L
CENTER_NAME    = EARTH
REF_FRAME      = TEME
TIME_SYSTEM    = UTC
MEAN_ELEMENT_THEORY = SGP/SGP4

EPOCH          = 2025-10-26T22:00:03.000096
MEAN_MOTION    = 15.83063167
ECCENTRICITY   = .00010105
INCLINATION    = 53.1549
RA_OF_ASC_NODE = 10.1665
ARG_OF_PERICENTER = 62.6931
MEAN_ANOMALY   = 17.2095

EPHEMERIS_TYPE = 0
CLASSIFICATION_TYPE = U
NORAD_CAT_ID   = 66015
ELEMENT_SET_NO = 999
REV_AT_EPOCH   = 192
BSTAR          = -.84260465E-2
MEAN_MOTION_DOT = -.1610753E-1
MEAN_MOTION_DDOT = 0

CCSDS_OMM_VERS = 2.0
CREATION_DATE  = 
ORIGINATOR     = 

OBJECT_NAME    = STARLINK-35243
OBJECT_ID      = 2025-232M
CENTER_NAME    = EARTH
REF_FRAME      = TEME
TIME_SYSTEM    = UTC
MEAN_ELEMENT_THEORY = SGP/SGP4

EPOCH          = 2025-10-26T22:00:03.000096
MEAN_MOTION    = 15.83082413
ECCENTRICITY   = .0001039
INCLINATION    = 53.1547
RA_OF_ASC_NODE = 10.1713
ARG_OF_PERICENTER = 51.6419
MEAN_ANOMALY   = 25.8261

EPHEMERIS_TYPE = 0
CLASSIFICATION_TYPE = U
NORAD_CAT_ID   = 66016
ELEMENT_SET_NO = 999
REV_AT_EPOCH   = 203
BSTAR          = -.83475472E-2
MEAN_MOTION_DOT = -.1598969E-1
MEAN_MOTION_DDOT = 0

CCSDS_OMM_VERS = 2.0
CREATION_DATE  = 
ORIGINATOR     = 

OBJECT_NAME    = STARLINK-35398
OBJECT_ID      = 2025-232N
CENTER_NAME    = EARTH
REF_FRAME      = TEME
TIME_SYSTEM    = UTC
MEAN_ELEMENT_THEORY = SGP/SGP4

EPOCH          = 2025-10-26T22:00:03.000096
MEAN_MOTION    = 15.83034808
ECCENTRICITY   = .0000878
INCLINATION    = 53.1550
RA_OF_ASC_NODE = 10.1565
ARG_OF_PERICENTER = 76.2908
MEAN_ANOMALY   = 8.3432

EPHEMERIS_TYPE = 0
CLASSIFICATION_TYPE = U
NORAD_CAT_ID   = 66017
ELEMENT_SET_NO = 999
REV_AT_EPOCH   = 195
BSTAR          = -.85583547E-2
MEAN_MOTION_DOT = -.1630704E-1
MEAN_MOTION_DDOT = 0

